{"type": "FeatureCollection", "features": [{"type": "Feature", "properties": {"norad_id": 28890, "name": "BEIJING 1", "group": "dmc", "lat": -12.046896456534176, "lon": 107.21020294722437, "alt_km": 697.2710150833154, "timestamp": "2025-12-03T22:42:32.323292+00:00", "meta": {"OBJECT_NAME": "BEIJING 1", "OBJECT_ID": "2005-043A", "EPOCH": "2025-12-03T12:55:06.088224", "MEAN_MOTION": 14.63351749, "ECCENTRICITY": 0.001485, "INCLINATION": 98.265, "RA_OF_ASC_NODE": 105.0238, "ARG_OF_PERICENTER": 169.3234, "MEAN_ANOMALY": 190.8286, "EPHEMERIS_TYPE": 0, "CLASSIFICATION_TYPE": "U", "NORAD_CAT_ID": 28890, "ELEMENT_SET_NO": 999, "REV_AT_EPOCH": 7203, "BSTAR": 0.00013739, "MEAN_MOTION_DOT": 6.62e-06, "MEAN_MOTION_DDOT": 0}, "tle": {"line1": "1 28890U 05043A   25337.53826491  .00000662  00000+0  13739-3 0  9996", "line2": "2 28890  98.2650 105.0238 0014850 169.3234 190.8286 14.63351749 72033"}}, "geometry": {"type": "Point", "coordinates": [107.21020294722437, -12.046896456534176]}}, {"type": "Feature", "properties": {"norad_id": 33320, "name": "HUANJING 1A (HJ-1A)", "group": "dmc", "lat": 74.67812062275607, "lon": 176.0062971888446, "alt_km": 600.873310800519, "timestamp": "2025-12-03T22:42:32.323331+00:00", "meta": {"OBJECT_NAME": "HUANJING 1A (HJ-1A)", "OBJECT_ID": "2008-041A", "EPOCH": "2025-12-03T12:31:58.620864", "MEAN_MOTION": 14.83346429, "ECCENTRICITY": 0.0020647, "INCLINATION": 97.6536, "RA_OF_ASC_NODE": 326.2063, "ARG_OF_PERICENTER": 62.9456, "MEAN_ANOMALY": 297.3863, "EPHEMERIS_TYPE": 0, "CLASSIFICATION_TYPE": "U", "NORAD_CAT_ID": 33320, "ELEMENT_SET_NO": 999, "REV_AT_EPOCH": 92939, "BSTAR": 0.00026912, "MEAN_MOTION_DOT": 2.162e-05, "MEAN_MOTION_DDOT": 0}, "tle": {"line1": "1 33320U 08041A   25337.52220626  .00002162  00000+0  26912-3 0  9992", "line2": "2 33320  97.6536 326.2063 0020647  62.9456 297.3863 14.83346429929396"}}, "geometry": {"type": "Point", "coordinates": [176.0062971888446, 74.67812062275607]}}, {"type": "Feature", "properties": {"norad_id": 33321, "name": "HUANJING 1B (HJ-1B)", "group": "dmc", "lat": -18.08766930381706, "lon": -27.15499368383567, "alt_km": 639.5458235129045, "timestamp": "2025-12-03T22:42:32.323344+00:00", "meta": {"OBJECT_NAME": "HUANJING 1B (HJ-1B)", "OBJECT_ID": "2008-041B", "EPOCH": "2025-12-03T13:04:26.048352", "MEAN_MOTION": 14.82782056, "ECCENTRICITY": 0.0038163, "INCLINATION": 97.6396, "RA_OF_ASC_NODE": 329.9488, "ARG_OF_PERICENTER": 104.8212, "MEAN_ANOMALY": 255.7234, "EPHEMERIS_TYPE": 0, "CLASSIFICATION_TYPE": "U", "NORAD_CAT_ID": 33321, "ELEMENT_SET_NO": 999, "REV_AT_EPOCH": 92941, "BSTAR": 0.00021388, "MEAN_MOTION_DOT": 1.699e-05, "MEAN_MOTION_DDOT": 0}, "tle": {"line1": "1 33321U 08041B   25337.54474593  .00001699  00000+0  21388-3 0  9995", "line2": "2 33321  97.6396 329.9488 0038163 104.8212 255.7234 14.82782056929412"}}, "geometry": {"type": "Point", "coordinates": [-27.15499368383567, -18.08766930381706]}}, {"type": "Feature", "properties": {"norad_id": 33446, "name": "YAOGAN-4", "group": "dmc", "lat": -75.67727545628709, "lon": 55.10538518960416, "alt_km": 629.1668270492219, "timestamp": "2025-12-03T22:42:32.323356+00:00", "meta": {"OBJECT_NAME": "YAOGAN-4", "OBJECT_ID": "2008-061A", "EPOCH": "2025-12-03T08:35:24.296640", "MEAN_MOTION": 14.8263402, "ECCENTRICITY": 0.0014411, "INCLINATION": 97.917, "RA_OF_ASC_NODE": 267.5501, "ARG_OF_PERICENTER": 354.6933, "MEAN_ANOMALY": 5.4125, "EPHEMERIS_TYPE": 0, "CLASSIFICATION_TYPE": "U", "NORAD_CAT_ID": 33446, "ELEMENT_SET_NO": 999, "REV_AT_EPOCH": 91664, "BSTAR": 0.00028686, "MEAN_MOTION_DOT": 2.261e-05, "MEAN_MOTION_DDOT": 0}, "tle": {"line1": "1 33446U 08061A   25337.35792010  .00002261  00000+0  28686-3 0  9995", "line2": "2 33446  97.9170 267.5501 0014411 354.6933   5.4125 14.82634020916648"}}, "geometry": {"type": "Point", "coordinates": [55.10538518960416, -75.67727545628709]}}, {"type": "Feature", "properties": {"norad_id": 35681, "name": "DEIMOS-1", "group": "dmc", "lat": -81.99344498334958, "lon": -146.51990643673923, "alt_km": 654.6122311489662, "timestamp": "2025-12-03T22:42:32.323367+00:00", "meta": {"OBJECT_NAME": "DEIMOS-1", "OBJECT_ID": "2009-041A", "EPOCH": "2025-12-03T11:42:35.088768", "MEAN_MOTION": 14.74929428, "ECCENTRICITY": 0.0002677, "INCLINATION": 97.7146, "RA_OF_ASC_NODE": 138.5224, "ARG_OF_PERICENTER": 96.748, "MEAN_ANOMALY": 263.4034, "EPHEMERIS_TYPE": 0, "CLASSIFICATION_TYPE": "U", "NORAD_CAT_ID": 35681, "ELEMENT_SET_NO": 999, "REV_AT_EPOCH": 87803, "BSTAR": 0.0001719, "MEAN_MOTION_DOT": 1.107e-05, "MEAN_MOTION_DDOT": 0}, "tle": {"line1": "1 35681U 09041A   25337.48790612  .00001107  00000+0  17190-3 0  9993", "line2": "2 35681  97.7146 138.5224 0002677  96.7480 263.4034 14.74929428878038"}}, "geometry": {"type": "Point", "coordinates": [-146.51990643673923, -81.99344498334958]}}, {"type": "Feature", "properties": {"norad_id": 35683, "name": "UK-DMC 2", "group": "dmc", "lat": -81.23040143219691, "lon": -130.40986267757904, "alt_km": 651.5099537919168, "timestamp": "2025-12-03T22:42:32.323377+00:00", "meta": {"OBJECT_NAME": "UK-DMC 2", "OBJECT_ID": "2009-041C", "EPOCH": "2025-12-03T11:44:30.986592", "MEAN_MOTION": 14.75588187, "ECCENTRICITY": 0.000129, "INCLINATION": 97.8557, "RA_OF_ASC_NODE": 112.6538, "ARG_OF_PERICENTER": 102.811, "MEAN_ANOMALY": 257.3244, "EPHEMERIS_TYPE": 0, "CLASSIFICATION_TYPE": "U", "NORAD_CAT_ID": 35683, "ELEMENT_SET_NO": 999, "REV_AT_EPOCH": 87770, "BSTAR": 0.00023807, "MEAN_MOTION_DOT": 1.574e-05, "MEAN_MOTION_DDOT": 0}, "tle": {"line1": "1 35683U 09041C   25337.48924753  .00001574  00000+0  23807-3 0  9990", "line2": "2 35683  97.8557 112.6538 0001290 102.8110 257.3244 14.75588187877709"}}, "geometry": {"type": "Point", "coordinates": [-130.40986267757904, -81.23040143219691]}}, {"type": "Feature", "properties": {"norad_id": 40715, "name": "DMC3-FM1", "group": "dmc", "lat": 4.565961011758006, "lon": -155.15806370835517, "alt_km": 611.068735725491, "timestamp": "2025-12-03T22:42:32.323387+00:00", "meta": {"OBJECT_NAME": "DMC3-FM1", "OBJECT_ID": "2015-032A", "EPOCH": "2025-12-03T12:59:17.117376", "MEAN_MOTION": 14.85414112, "ECCENTRICITY": 0.0005318, "INCLINATION": 97.6699, "RA_OF_ASC_NODE": 205.0684, "ARG_OF_PERICENTER": 353.8536, "MEAN_ANOMALY": 6.2613, "EPHEMERIS_TYPE": 0, "CLASSIFICATION_TYPE": "U", "NORAD_CAT_ID": 40715, "ELEMENT_SET_NO": 999, "REV_AT_EPOCH": 56086, "BSTAR": 0.00015477, "MEAN_MOTION_DOT": 1.282e-05, "MEAN_MOTION_DDOT": 0}, "tle": {"line1": "1 40715U 15032A   25337.54117034  .00001282  00000+0  15477-3 0  9992", "line2": "2 40715  97.6699 205.0684 0005318 353.8536   6.2613 14.85414112560864"}}, "geometry": {"type": "Point", "coordinates": [-155.15806370835517, 4.565961011758006]}}, {"type": "Feature", "properties": {"norad_id": 40716, "name": "DMC3-FM2", "group": "dmc", "lat": -63.38119413213929, "lon": 11.285785453439614, "alt_km": 621.0730117752901, "timestamp": "2025-12-03T22:42:32.323397+00:00", "meta": {"OBJECT_NAME": "DMC3-FM2", "OBJECT_ID": "2015-032B", "EPOCH": "2025-12-03T13:31:41.679840", "MEAN_MOTION": 14.8541549, "ECCENTRICITY": 0.0005968, "INCLINATION": 97.6756, "RA_OF_ASC_NODE": 206.5274, "ARG_OF_PERICENTER": 357.9347, "MEAN_ANOMALY": 2.1843, "EPHEMERIS_TYPE": 0, "CLASSIFICATION_TYPE": "U", "NORAD_CAT_ID": 40716, "ELEMENT_SET_NO": 999, "REV_AT_EPOCH": 56086, "BSTAR": 0.00015678, "MEAN_MOTION_DOT": 1.299e-05, "MEAN_MOTION_DDOT": 0}, "tle": {"line1": "1 40716U 15032B   25337.56367685  .00001299  00000+0  15678-3 0  9995", "line2": "2 40716  97.6756 206.5274 0005968 357.9347   2.1843 14.85415490560866"}}, "geometry": {"type": "Point", "coordinates": [11.285785453439614, -63.38119413213929]}}, {"type": "Feature", "properties": {"norad_id": 40717, "name": "DMC3-FM3", "group": "dmc", "lat": 50.0849153711231, "lon": 37.807099608262554, "alt_km": 610.1586329919182, "timestamp": "2025-12-03T22:42:32.323407+00:00", "meta": {"OBJECT_NAME": "DMC3-FM3", "OBJECT_ID": "2015-032C", "EPOCH": "2025-12-03T12:25:44.978880", "MEAN_MOTION": 14.85408864, "ECCENTRICITY": 0.0005332, "INCLINATION": 97.6811, "RA_OF_ASC_NODE": 208.1101, "ARG_OF_PERICENTER": 0.3003, "MEAN_ANOMALY": 359.8214, "EPHEMERIS_TYPE": 0, "CLASSIFICATION_TYPE": "U", "NORAD_CAT_ID": 40717, "ELEMENT_SET_NO": 999, "REV_AT_EPOCH": 56086, "BSTAR": 0.00012674, "MEAN_MOTION_DOT": 1.04e-05, "MEAN_MOTION_DDOT": 0}, "tle": {"line1": "1 40717U 15032C   25337.51788170  .00001040  00000+0  12674-3 0  9994", "line2": "2 40717  97.6811 208.1101 0005332   0.3003 359.8214 14.85408864560860"}}, "geometry": {"type": "Point", "coordinates": [37.807099608262554, 50.0849153711231]}}]}